[{"OBJECT_NAME":"TURKSAT 1C","OBJECT_ID":"1996-040B","EPOCH":"2026-03-04T23:22:20.436096","MEAN_MOTION":1.00380578,"ECCENTRICITY":0.00047905,"INCLINATION":11.9005,"RA_OF_ASC_NODE":30.9807,"ARG_OF_PERICENTER":211.7589,"MEAN_ANOMALY":343.1701,"EPHEMERIS_TYPE":0,"CLASSIFICATION_TYPE":"U","NORAD_CAT_ID":23949,"ELEMENT_SET_NO":999,"REV_AT_EPOCH":10863,"BSTAR":0,"MEAN_MOTION_DOT":-1.09e-6,"MEAN_MOTION_DDOT":0},{"OBJECT_NAME":"UFO 7 (USA 127)","OBJECT_ID":"1996-042A","EPOCH":"2026-03-05T05:18:00.323712","MEAN_MOTION":1.00244941,"ECCENTRICITY":0.00029416,"INCLINATION":11.0168,"RA_OF_ASC_NODE":17.6368,"ARG_OF_PERICENTER":107.1465,"MEAN_ANOMALY":88.6119,"EPHEMERIS_TYPE":0,"CLASSIFICATION_TYPE":"U","NORAD_CAT_ID":23967,"ELEMENT_SET_NO":999,"REV_AT_EPOCH":10844,"BSTAR":0,"MEAN_MOTION_DOT":-2.36e-6,"MEAN_MOTION_DDOT":0},{"OBJECT_NAME":"INMARSAT 3-F2","OBJECT_ID":"1996-053A","EPOCH":"2026-03-05T00:38:38.607936","MEAN_MOTION":0.99978354,"ECCENTRICITY":0.00060724,"INCLINATION":9.6214,"RA_OF_ASC_NODE":54.9804,"ARG_OF_PERICENTER":293.2289,"MEAN_ANOMALY":78.3035,"EPHEMERIS_TYPE":0,"CLASSIFICATION_TYPE":"U","NORAD_CAT_ID":24307,"ELEMENT_SET_NO":999,"REV_AT_EPOCH":10788,"BSTAR":0,"MEAN_MOTION_DOT":-5.4e-7,"MEAN_MOTION_DDOT":0},{"OBJECT_NAME":"ECHOSTAR 2","OBJECT_ID":"1996-055A","EPOCH":"2026-03-03T22:08:27.723840","MEAN_MOTION":1.00350353,"ECCENTRICITY":0.0008485,"INCLINATION":11.7999,"RA_OF_ASC_NODE":32.3894,"ARG_OF_PERICENTER":87.2633,"MEAN_ANOMALY":270.459,"EPHEMERIS_TYPE":0,"CLASSIFICATION_TYPE":"U","NORAD_CAT_ID":24313,"ELEMENT_SET_NO":999,"REV_AT_EPOCH":10795,"BSTAR":0,"MEAN_MOTION_DOT":-1.33e-6,"MEAN_MOTION_DDOT":0},{"OBJECT_NAME":"EXPRESS 2","OBJECT_ID":"1996-058A","EPOCH":"2026-03-04T20:58:38.839296","MEAN_MOTION":1.00334444,"ECCENTRICITY":0.00111777,"INCLINATION":14.5789,"RA_OF_ASC_NODE":355.1519,"ARG_OF_PERICENTER":348.4392,"MEAN_ANOMALY":211.5476,"EPHEMERIS_TYPE":0,"CLASSIFICATION_TYPE":"U","NORAD_CAT_ID":24435,"ELEMENT_SET_NO":999,"REV_AT_EPOCH":10776,"BSTAR":0,"MEAN_MOTION_DOT":-1.57e-6,"MEAN_MOTION_DDOT":0},{"OBJECT_NAME":"SL-12 R/B(2)","OBJECT_ID":"1996-058D","EPOCH":"2026-03-05T00:03:40.295808","MEAN_MOTION":1.00236276,"ECCENTRICITY":0.00068499,"INCLINATION":14.3999,"RA_OF_ASC_NODE":351.8501,"ARG_OF_PERICENTER":125.7668,"MEAN_ANOMALY":84.4112,"EPHEMERIS_TYPE":0,"CLASSIFICATION_TYPE":"U","NORAD_CAT_ID":24438,"ELEMENT_SET_NO":999,"REV_AT_EPOCH":10779,"BSTAR":0,"MEAN_MOTION_DOT":1.17e-6,"MEAN_MOTION_DDOT":0},{"OBJECT_NAME":"AFRICASAT-2 (MEASAT-2)","OBJECT_ID":"1996-063B","EPOCH":"2026-03-04T22:12:21.746016","MEAN_MOTION":0.99649253,"ECCENTRICITY":0.00051374,"INCLINATION":12.1019,"RA_OF_ASC_NODE":29.7706,"ARG_OF_PERICENTER":215.6566,"MEAN_ANOMALY":328.3857,"EPHEMERIS_TYPE":0,"CLASSIFICATION_TYPE":"U","NORAD_CAT_ID":24653,"ELEMENT_SET_NO":999,"REV_AT_EPOCH":10724,"BSTAR":0,"MEAN_MOTION_DOT":-1.8e-7,"MEAN_MOTION_DDOT":0},{"OBJECT_NAME":"INMARSAT 3-F3","OBJECT_ID":"1996-070A","EPOCH":"2026-03-03T18:13:14.446272","MEAN_MOTION":1.00001751,"ECCENTRICITY":0.00068723,"INCLINATION":10.091,"RA_OF_ASC_NODE":50.6474,"ARG_OF_PERICENTER":270.4488,"MEAN_ANOMALY":265.6744,"EPHEMERIS_TYPE":0,"CLASSIFICATION_TYPE":"U","NORAD_CAT_ID":24674,"ELEMENT_SET_NO":999,"REV_AT_EPOCH":10685,"BSTAR":0,"MEAN_MOTION_DOT":-2.5e-6,"MEAN_MOTION_DDOT":0},{"OBJECT_NAME":"DFH 3-2","OBJECT_ID":"1997-021A","EPOCH":"2026-03-04T21:42:30.561696","MEAN_MOTION":1.00277919,"ECCENTRICITY":0.00034389,"INCLINATION":13.419,"RA_OF_ASC_NODE":14.5766,"ARG_OF_PERICENTER":94.5536,"MEAN_ANOMALY":145.9813,"EPHEMERIS_TYPE":0,"CLASSIFICATION_TYPE":"U","NORAD_CAT_ID":24798,"ELEMENT_SET_NO":999,"REV_AT_EPOCH":10547,"BSTAR":0,"MEAN_MOTION_DOT":-3.67e-6,"MEAN_MOTION_DDOT":0},{"OBJECT_NAME":"AMC-3","OBJECT_ID":"1997-050A","EPOCH":"2026-03-03T23:54:38.515968","MEAN_MOTION":1.00271818,"ECCENTRICITY":0.00034833,"INCLINATION":7.8887,"RA_OF_ASC_NODE":65.2783,"ARG_OF_PERICENTER":287.8217,"MEAN_ANOMALY":95.3034,"EPHEMERIS_TYPE":0,"CLASSIFICATION_TYPE":"U","NORAD_CAT_ID":24936,"ELEMENT_SET_NO":999,"REV_AT_EPOCH":5138,"BSTAR":0,"MEAN_MOTION_DOT":-2.71e-6,"MEAN_MOTION_DDOT":0},{"OBJECT_NAME":"USA 134","OBJECT_ID":"1997-065A","EPOCH":"2026-03-04T09:57:38.664576","MEAN_MOTION":1.00271226,"ECCENTRICITY":0.0006985,"INCLINATION":12.6603,"RA_OF_ASC_NODE":22.4983,"ARG_OF_PERICENTER":307.0105,"MEAN_ANOMALY":229.9566,"EPHEMERIS_TYPE":0,"CLASSIFICATION_TYPE":"U","NORAD_CAT_ID":25019,"ELEMENT_SET_NO":999,"REV_AT_EPOCH":3190,"BSTAR":0,"MEAN_MOTION_DOT":-7.0e-7,"MEAN_MOTION_DDOT":0},{"OBJECT_NAME":"KUPON","OBJECT_ID":"1997-070A","EPOCH":"2026-03-04T06:48:58.452768","MEAN_MOTION":1.00287908,"ECCENTRICITY":0.00058294,"INCLINATION":14.5604,"RA_OF_ASC_NODE":355.4317,"ARG_OF_PERICENTER":307.5681,"MEAN_ANOMALY":52.3832,"EPHEMERIS_TYPE":0,"CLASSIFICATION_TYPE":"U","NORAD_CAT_ID":25045,"ELEMENT_SET_NO":999,"REV_AT_EPOCH":10359,"BSTAR":0,"MEAN_MOTION_DOT":-2.66e-6,"MEAN_MOTION_DDOT":0},{"OBJECT_NAME":"INDOSTAR 1","OBJECT_ID":"1997-071B","EPOCH":"2026-03-05T01:07:38.697888","MEAN_MOTION":1.00267906,"ECCENTRICITY":0.00049142,"INCLINATION":12.8375,"RA_OF_ASC_NODE":20.8094,"ARG_OF_PERICENTER":299.4654,"MEAN_ANOMALY":250.0408,"EPHEMERIS_TYPE":0,"CLASSIFICATION_TYPE":"U","NORAD_CAT_ID":25050,"ELEMENT_SET_NO":999,"REV_AT_EPOCH":10375,"BSTAR":0,"MEAN_MOTION_DOT":1.23e-6,"MEAN_MOTION_DDOT":0},{"OBJECT_NAME":"GALAXY 8 (G-8)","OBJECT_ID":"1997-078A","EPOCH":"2026-03-04T23:37:06.849984","MEAN_MOTION":0.99694822,"ECCENTRICITY":0.00068172,"INCLINATION":13.9808,"RA_OF_ASC_NODE":10.6663,"ARG_OF_PERICENTER":18.3165,"MEAN_ANOMALY":215.902,"EPHEMERIS_TYPE":0,"CLASSIFICATION_TYPE":"U","NORAD_CAT_ID":25086,"ELEMENT_SET_NO":999,"REV_AT_EPOCH":10290,"BSTAR":0,"MEAN_MOTION_DOT":-1.12e-6,"MEAN_MOTION_DDOT":0},{"OBJECT_NAME":"INTELSAT 804 (IS-804)","OBJECT_ID":"1997-083A","EPOCH":"2026-03-03T07:43:51.403872","MEAN_MOTION":1.00259973,"ECCENTRICITY":0.00087581,"INCLINATION":13.0446,"RA_OF_ASC_NODE":18.4142,"ARG_OF_PERICENTER":8.8875,"MEAN_ANOMALY":57.7063,"EPHEMERIS_TYPE":0,"CLASSIFICATION_TYPE":"U","NORAD_CAT_ID":25110,"ELEMENT_SET_NO":999,"REV_AT_EPOCH":10327,"BSTAR":0,"MEAN_MOTION_DOT":-7.3e-7,"MEAN_MOTION_DDOT":0},{"OBJECT_NAME":"INMARSAT 3-F5","OBJECT_ID":"1998-006B","EPOCH":"2026-03-04T10:13:29.882784","MEAN_MOTION":1.00267995,"ECCENTRICITY":0.00053912,"INCLINATION":9.4599,"RA_OF_ASC_NODE":54.2851,"ARG_OF_PERICENTER":296.0321,"MEAN_ANOMALY":271.1771,"EPHEMERIS_TYPE":0,"CLASSIFICATION_TYPE":"U","NORAD_CAT_ID":25153,"ELEMENT_SET_NO":999,"REV_AT_EPOCH":10284,"BSTAR":0,"MEAN_MOTION_DOT":-2.98e-6,"MEAN_MOTION_DDOT":0},{"OBJECT_NAME":"UFO 8 (USA 138)","OBJECT_ID":"1998-016A","EPOCH":"2026-03-05T04:26:50.231040","MEAN_MOTION":1.00286996,"ECCENTRICITY":0.00080637,"INCLINATION":11.0052,"RA_OF_ASC_NODE":23.3857,"ARG_OF_PERICENTER":271.9594,"MEAN_ANOMALY":85.4614,"EPHEMERIS_TYPE":0,"CLASSIFICATION_TYPE":"U","NORAD_CAT_ID":25258,"ELEMENT_SET_NO":999,"REV_AT_EPOCH":10281,"BSTAR":0,"MEAN_MOTION_DOT":-2.08e-6,"MEAN_MOTION_DDOT":0}]
