TURKSAT 1C              
1 23949U 96040B   26063.97384764 -.00000109  00000+0  00000+0 0  9990
2 23949  11.9005  30.9807 0004790 211.7589 343.1701  1.00380578108634
UFO 7 (USA 127)         
1 23967U 96042A   26064.22083708 -.00000236  00000+0  00000+0 0  9996
2 23967  11.0168  17.6368 0002941 107.1465  88.6119  1.00244941108442
INMARSAT 3-F2           
1 24307U 96053A   26064.02683574 -.00000054  00000+0  00000+0 0  9990
2 24307   9.6214  54.9804 0006072 293.2289  78.3035  0.99978354107884
ECHOSTAR 2              
1 24313U 96055A   26062.92254310 -.00000133  00000+0  00000+0 0  9996
2 24313  11.7999  32.3894 0008485  87.2633 270.4590  1.00350353107953
EXPRESS 2               
1 24435U 96058A   26063.87406064 -.00000157  00000+0  00000+0 0  9990
2 24435  14.5789 355.1519 0011177 348.4392 211.5476  1.00334444107763
SL-12 R/B(2)            
1 24438U 96058D   26064.00254972  .00000117  00000+0  00000+0 0  9993
2 24438  14.3999 351.8501 0006849 125.7668  84.4112  1.00236276107794
AFRICASAT-2 (MEASAT-2)  
1 24653U 96063B   26063.92525169 -.00000018  00000+0  00000+0 0  9998
2 24653  12.1019  29.7706 0005137 215.6566 328.3857  0.99649253107241
INMARSAT 3-F3           
1 24674U 96070A   26062.75919498 -.00000250  00000+0  00000+0 0  9999
2 24674  10.0910  50.6474 0006872 270.4488 265.6744  1.00001751106857
DFH 3-2                 
1 24798U 97021A   26063.90452039 -.00000367  00000+0  00000+0 0  9993
2 24798  13.4190  14.5766 0003438  94.5536 145.9813  1.00277919105473
AMC-3                   
1 24936U 97050A   26062.99627912 -.00000271  00000+0  00000+0 0  9995
2 24936   7.8887  65.2783 0003483 287.8217  95.3034  1.00271818 51387
USA 134                 
1 25019U 97065A   26063.41503084 -.00000070  00000+0  00000+0 0  9992
2 25019  12.6603  22.4983 0006985 307.0105 229.9566  1.00271226 31902
KUPON                   
1 25045U 97070A   26063.28400987 -.00000266  00000+0  00000+0 0  9997
2 25045  14.5604 355.4317 0005829 307.5681  52.3832  1.00287908103596
INDOSTAR 1              
1 25050U 97071B   26064.04697567  .00000123  00000+0  00000+0 0  9992
2 25050  12.8375  20.8094 0004914 299.4654 250.0408  1.00267906103756
GALAXY 8 (G-8)          
1 25086U 97078A   26063.98410706 -.00000112  00000+0  00000+0 0  9997
2 25086  13.9808  10.6663 0006817  18.3165 215.9020  0.99694822102900
INTELSAT 804 (IS-804)   
1 25110U 97083A   26062.32212273 -.00000073  00000+0  00000+0 0  9993
2 25110  13.0446  18.4142 0008758   8.8875  57.7063  1.00259973103270
INMARSAT 3-F5           
1 25153U 98006B   26063.42604031 -.00000298  00000+0  00000+0 0  9994
2 25153   9.4599  54.2851 0005391 296.0321 271.1771  1.00267995102840
UFO 8 (USA 138)         
1 25258U 98016A   26064.18530360 -.00000208  00000+0  00000+0 0  9999
2 25258  11.0052  23.3857 0008063 271.9594  85.4614  1.00286996102816
